IRIDIUM 150             
1 43257U 18030J   25258.67878980  .00000107  00000+0  31073-4 0  9993
2 43257  86.3955  45.2016 0002367  88.9575 271.1892 14.34218102390814
IRIDIUM 143             
1 43258U 18030K   25258.65976235  .00000089  00000+0  24761-4 0  9999
2 43258  86.3959  45.2915 0002537  85.9421 274.2065 14.34218475390744
IRIDIUM 161             
1 43478U 18047C   25258.75754949  .00000339  00000+0  94923-4 0  9993
2 43478  86.4541 203.0928 0002139  87.6214 272.5232 14.43280988385559
IRIDIUM 152             
1 43479U 18047D   25258.77201708  .00000259  00000+0  85465-4 0  9998
2 43479  86.4015 202.9476 0002264  89.1892 270.9563 14.34219287383157
IRIDIUM 147             
1 43480U 18047E   25258.77835873  .00000236  00000+0  77278-4 0  9994
2 43480  86.4017 202.9453 0002115  83.1896 276.9541 14.34219101383156
IRIDIUM 110             
1 43481U 18047F   25258.78470088  .00000101  00000+0  28974-4 0  9999
2 43481  86.4019 203.0271 0001824  92.2537 267.8868 14.34217824383148
IRIDIUM 162             
1 43482U 18047G   25258.12726389  .00000302  00000+0  83794-4 0  9990
2 43482  86.4538 203.2502 0002192  92.1428 268.0024 14.43278386385454
IRIDIUM 160             
1 43569U 18061A   25258.73053741  .00000114  00000+0  33616-4 0  9993
2 43569  86.4049 171.4940 0001973  85.9783 274.1639 14.34217902374038
